[{"OBJECT_NAME":"STARLINK-6240","OBJECT_ID":"2023-088AN","EPOCH":"2026-03-09T22:00:01.999584","MEAN_MOTION":15.10951184,"ECCENTRICITY":0.00019604,"INCLINATION":43,"RA_OF_ASC_NODE":93.1348,"ARG_OF_PERICENTER":277.0874,"MEAN_ANOMALY":131.7723,"EPHEMERIS_TYPE":0,"CLASSIFICATION_TYPE":"U","NORAD_CAT_ID":57084,"ELEMENT_SET_NO":999,"REV_AT_EPOCH":577,"BSTAR":0.0035490202,"MEAN_MOTION_DOT":0.00060523,"MEAN_MOTION_DDOT":0},{"OBJECT_NAME":"CZ-6A DEB","OBJECT_ID":"2024-140ACM","EPOCH":"2026-03-09T13:49:36.534720","MEAN_MOTION":14.84353282,"ECCENTRICITY":0.0123748,"INCLINATION":89.0471,"RA_OF_ASC_NODE":283.7315,"ARG_OF_PERICENTER":156.1501,"MEAN_ANOMALY":204.5529,"EPHEMERIS_TYPE":0,"CLASSIFICATION_TYPE":"U","NORAD_CAT_ID":61821,"ELEMENT_SET_NO":999,"REV_AT_EPOCH":7938,"BSTAR":0.0013387,"MEAN_MOTION_DOT":0.00012918,"MEAN_MOTION_DDOT":0}]
